ISS (ZARYA)             
1 25544U 98067A   21212.30049829  .00005256  00000-0  10398-3 0  9995
2 25544  51.6430 124.5801 0001390 220.3682 235.5802 15.48861065295430
KESTREL EYE IIM (KE2M)  
1 42982U 98067NE  21212.66328543  .00190514  29405-4  17935-3 0  9992
2 42982  51.6183 314.7892 0009044 335.4951  24.5633 16.11476170215850
AEROCUBE 12A            
1 43556U 18046C   21212.82725073  .00003130  00000-0  11137-3 0  9997
2 43556  51.6408 295.5763 0007452 326.3731  33.6777 15.32048365170085
AEROCUBE 12B            
1 43557U 18046D   21212.67908082  .00001720  00000-0  67782-4 0  9995
2 43557  51.6409 298.2993 0007567 325.2142  34.8343 15.31409052169985
LEMUR-2-VU              
1 43558U 18046E   21212.59445519  .00004065  00000-0  13134-3 0  9994
2 43558  51.6406 288.2382 0006805 332.4854  27.5767 15.34390259170159
LEMUR-2-ALEXANDER       
1 43559U 18046F   21212.89845188  .00003759  00000-0  12133-3 0  9991
2 43559  51.6396 285.7908 0006736 333.5914  26.4724 15.34645553169997
LEMUR-2-YUASA           
1 43560U 18046G   21212.82477901  .00004805  00000-0  15336-3 0  9991
2 43560  51.6398 287.5227 0007021 345.6819  14.3964 15.34346579170182
LEMUR-2-TOMHENDERSON    
1 43561U 18046H   21212.91532437  .00002997  00000-0  10102-3 0  9994
2 43561  51.6405 288.1070 0007065 342.2250  17.8484 15.33988085169743
1998-067PN              
1 43638U 98067PN  21212.71961544  .00106525  15367-4  33205-3 0  9990
2 43638  51.6283  12.8872 0002448 278.5464  81.5265 15.91452390161108
ISS DEB (SEDA-AP)       
1 43870U 98067PU  21212.86180255  .00008112  00000-0  92901-4 0  9992
2 43870  51.6359  66.8478 0003919 134.8365 225.2948 15.63124232148570
UNITE                   
1 44031U 98067PX  21212.76030944  .00068121  00000-0  30452-3 0  9998
2 44031  51.6391  35.2796 0001672 216.7083 143.3805 15.83572830142681
ISS DEB                 
1 44303U 98067QA  21212.92775116  .00009655  00000-0  12209-3 0  9992
2 44303  51.6387  89.2618 0005055  60.2589 299.8906 15.60248392123554
ISS DEB                 
1 44306U 98067QD  21212.92978551  .00010534  00000-0  12876-3 0  9991
2 44306  51.6371  88.4121 0006109  57.4625 302.6958 15.61024902123572
RAAVANA-1               
1 44329U 98067QE  21212.93234715  .00087488  00000-0  38548-3 0  9990
2 44329  51.6338  54.5045 0001751 151.3207 208.7893 15.83781386121197
UGUISU                  
1 44330U 98067QF  21212.57175529  .00089998  00000-0  41517-3 0  9997
2 44330  51.6295  57.2314 0001976 134.0095 226.1070 15.82795575121108
NEPALISAT-1             
1 44331U 98067QG  21212.93174603  .00085891  00000-0  38171-3 0  9990
2 44331  51.6311  54.3914 0001767 148.3884 211.7225 15.83606782121186
SPOOQY-1                
1 44332U 98067QH  21212.92242507  .00079570  00000-0  38115-3 0  9994
2 44332  51.6328  55.8866 0001984 148.4368 211.6753 15.82037126121124
RED-EYE 1 (PINOT)       
1 44364U 98067QJ  21212.95659102  .00011137  00000-0  14009-3 0  9996
2 44364  51.6390  90.1954 0006357  56.3864 303.7735 15.60195927119136
KRAKSAT                 
1 44427U 98067QM  21212.73389358  .00033498  00000-0  28017-3 0  9993
2 44427  51.6382  74.9405 0003179  61.6357  53.6338 15.69674873118425
VCC A                   
1 44428U 98067QN  21212.57450509  .00072431  00000-0  38125-3 0  9994
2 44428  51.6345  61.9786 0001225 124.1970 235.9148 15.80027135118586
ENTRYSAT                
1 44429U 98067QP  21212.80560677  .00570215  17066-3  71587-3 0  9994
2 44429  51.6203  44.3371 0008953 277.1474  82.8521 16.06913906118839
VCC B                   
1 44431U 98067QR  21212.94666050  .00073258  00000-0  36712-3 0  9997
2 44431  51.6307  59.0887 0000557 141.1263 218.9779 15.81095135118597
RWASAT-1                
1 44790U 98067QV  21212.92116699  .00009754  00000-0  11951-3 0  9990
2 44790  51.6369  95.6620 0007453 101.8122  11.7145 15.61059938 96391
AQT-D                   
1 44791U 98067QW  21212.73493098  .00014836  00000-0  17700-3 0  9996
2 44791  51.6382  97.0054 0006161  77.2102 282.9579 15.61281676 96369
NARSSCUBE-1             
1 44792U 98067QX  21212.88377215  .00033536  00000-0  28346-3 0  9991
2 44792  51.6355  85.1123 0004063 106.1354 254.0090 15.69414873 96537
STPSAT-4                
1 45043U 98067QY  21212.74342263  .00007759  00000-0  12092-3 0  9990
2 45043  51.6402 112.7350 0005624  83.2014 276.9616 15.54898661 85395
HARP                    
1 45256U 98067QZ  21212.39833306  .00017199  00000-0  21252-3 0  9997
2 45256  51.6414 105.2628 0006433  80.2698 279.9021 15.60224519 82137
1998-067RA              
1 45257U 98067RA  21212.73580271  .00013455  00000-0  17623-3 0  9994
2 45257  51.6378 105.1880 0007113  82.5674 277.6127 15.58902605 82162
PHOENIX                 
1 45258U 98067RB  21212.71474834  .00012167  00000-0  16829-3 0  9996
2 45258  51.6389 107.2888 0005873  65.2561 294.9042 15.57552064 82101
1998-067RC              
1 45259U 98067RC  21212.40159874  .00024587  00000-0  26257-3 0  9992
2 45259  51.6380 100.7011 0005940  84.9869 275.1804 15.63755142 82198
CRYOCUBE                
1 45260U 98067RD  21212.96853555  .00042480  00000-0  38455-3 0  9997
2 45260  51.6360  95.4690 0005724  93.5245 266.6406 15.67612173 82323
AZTECHSAT-1             
1 45261U 98067RE  21212.93291863  .00037191  00000-0  32625-3 0  9999
2 45261  51.6352  92.1992 0005532  93.5815 266.5815 15.68448666 82355
RADSAT-U                
1 45262U 98067RF  21212.74110158  .00013839  00000-0  17811-3 0  9999
2 45262  51.6411 104.5466 0006106 111.8620 248.3023 15.59347088 82188
QARMAN                  
1 45263U 98067RG  21212.39559916  .00025039  00000-0  26823-3 0  9998
2 45263  51.6375 101.4059 0005942  81.2518 278.9149 15.63664208 82218
SORTIE                  
1 45264U 98067RH  21212.28518466  .00007910  00000-0  12001-3 0  9993
2 45264  51.6413 112.7206 0007413  81.7551 278.4281 15.55604228 82026
ICS-EF (ISS DEB)        
1 45265U 98067RJ  21212.88458624  .00003957  00000-0  70071-4 0  9998
2 45265  51.6409 115.1658 0005721  82.2773 277.8867 15.52843351 81720
G-SAT                   
1 45597U 98067RK  21212.71804974  .00014095  00000-0  18252-3 0  9998
2 45597  51.6395 106.5940 0004356 130.9461 229.1909 15.59172435 71516
QUETZAL-1               
1 45598U 98067RL  21212.75370928  .00021567  00000-0  25285-3 0  9996
2 45598  51.6390 104.5778 0002344 143.2852 216.8302 15.61446670 71478
RED-EYE 2 (MERLOT)      
1 45800U 98067RM  21212.73733524  .00007894  00000-0  12713-3 0  9994
2 45800  51.6413 114.9698 0001899  94.4200 265.7008 15.53956708 63571
RED-EYE 3 (CABERNET)    
1 45809U 98067RN  21212.80193318  .00007387  00000-0  11944-3 0  9994
2 45809  51.6412 114.6518 0002076  86.4030 273.7198 15.53958808 62567
DEMI                    
1 45916U 98067RP  21212.73239682  .00020671  00000-0  25483-3 0  9994
2 45916  51.6398 107.4548 0002409  45.5657 314.5533 15.60159939 59641
SPOC                    
1 46921U 98067RR  21212.10071013  .00010670  00000-0  16157-3 0  9990
2 46921  51.6414 118.2402 0001225 219.1313 140.9590 15.55240434 41650
BOBCAT-1                
1 46922U 98067RS  21212.44721263  .00015515  00000-0  21415-3 0  9993
2 46922  51.6423 114.5793 0000814 218.3465 141.7470 15.57373961 41699
NEUTRON-1               
1 46923U 98067RT  21212.44115949  .00009457  00000-0  14465-3 0  9997
2 46923  51.6413 116.7612 0001010 244.0779 116.0108 15.55120587 41736
1998-067RU              
1 46924U 98067RU  21212.74375393  .00031083  00000-0  34854-3 0  9996
2 46924  51.6387 109.0146 0000212 346.5016  13.5972 15.62380677 41836
LEMUR-2-BAXTER-OLIVER   
1 46925U 98067RV  21212.91961235  .00049862  00000-0  53011-3 0  9992
2 46925  51.6413 107.2381 0000521  53.6520 306.4523 15.63524138 41836
LEMUR-2-DJARA           
1 46926U 98067RW  21212.87317695  .00035533  00000-0  40014-3 0  9992
2 46926  51.6414 108.4286 0000116 100.3026 259.7981 15.62201887 41836
DESCENT                 
1 46927U 98067RX  21212.44656297  .00009601  00000-0  14677-3 0  9993
2 46927  51.6410 116.7937 0001102 285.5027  74.5842 15.55115392 41646
ISS DEB                 
1 47853U 98067RZ  21212.88299489  .00001854  00000-0  40856-4 0  9997
2 47853  51.6435 121.1874 0002070 251.7265 108.3499 15.49694761 22150
RSP-01                  
1 47925U 98067SB  21212.47492425  .00011068  00000-0  18468-3 0  9998
2 47925  51.6419 121.4710 0001916 173.2716 186.8300 15.52492364 21612
TAUSAT-1                
1 47926U 98067SC  21212.17109338  .00013106  00000-0  21139-3 0  9998
2 47926  51.6411 122.4397 0002919 179.8733 180.2259 15.53256639 21561
TSURU                   
1 47927U 98067SD  21212.74266930  .00010637  00000-0  17935-3 0  9999
2 47927  51.6421 120.2589 0001996 173.7214 186.3801 15.52246816 21658
STARS-EC                
1 47928U 98067SE  21212.47377055  .00014102  00000-0  23054-3 0  9991
2 47928  51.6416 121.4560 0004272 274.6297  85.4205 15.52805376 21599
MMSATS-1                
1 47976U 98067SJ  21212.92716479  .00004183  00000-0  80664-4 0  9990
2 47976  51.6462 120.7099 0001699 242.0134 118.0683 15.50196755 20449
SOYUZ-MS 18             
1 48159U 21029A   21212.30049829  .00005256  00000-0  10398-3 0  9996
2 48159  51.6430 124.5801 0001390 220.3682 235.5802 15.48861065295437
CREW DRAGON 2           
1 48209U 21030A   21212.30049829  .00005256  00000-0  10398-3 0  9994
2 48209  51.6430 124.5801 0001390 220.3682 235.5802 15.48861065295433
TIANHE                  
1 48274U 21035A   21212.86492575  .00008634  00000-0  96689-4 0  9993
2 48274  41.4703  10.5089 0009402 275.3302 204.7744 15.62791392 14688
TIANZHOU-2              
1 48803U 21046A   21212.41234472  .00008649  00000-0  96867-4 0  9998
2 48803  41.4696  13.2714 0009484 272.7396 177.8035 15.62783677 14619
RAMSAT                  
1 48850U 98067SL  21212.76678543  .00007456  00000-0  13736-3 0  9994
2 48850  51.6422 121.8984 0003550 311.5683  48.5001 15.50233806  7389
SOAR                    
1 48851U 98067SM  21212.87971735  .00019103  00000-0  32640-3 0  9993
2 48851  51.6402 121.1508 0002757 303.4227  56.6499 15.51312728  7445
SHENZHOU-12             
1 48852U 21053A   21212.41234472  .00008649  00000-0  96867-4 0  9990
2 48852  41.4696  13.2714 0009484 272.7396 177.8035 15.62783677 14613
BD-28                   
1 48867U 98067SN  21212.38028237  .00007864  00000-0  14367-3 0  9993
2 48867  51.6421 123.8180 0002683 353.9577   6.1379 15.50386980  6079
MIR-SAT 1               
1 48868U 98067SP  21212.89873871  .00013916  00000-0  24684-3 0  9990
2 48868  51.6417 121.2802 0001851 317.2262  42.8583 15.50520172  6187
PROGRESS-MS 17          
1 48869U 21057A   21212.30049829  .00005256  00000-0  10398-3 0  9995
2 48869  51.6430 124.5801 0001390 220.3682 235.5802 15.48861065295435
ISS (NAUKA)             
1 49044U 21066A   21212.30049829  .00005256  00000-0  10398-3 0  9991
2 49044  51.6430 124.5801 0001390 220.3682 235.5802 15.48861065295431
SL-25 R/B               
1 49045U 21066B   21212.90673721  .01007932  11883-4  29027-3 0  9990
2 49045  51.6199 118.1876 0066489 127.3700 233.3459 16.20641882  1659
